{
  "norad_id": 62493,
  "name": "STARLINK-32731",
  "history": [
    {
      "epoch": "2026-03-28T13:30:12.221280Z",
      "apogee_km": 483.7078685597062,
      "perigee_km": 482.2570162424163,
      "latitude_deg": 4.6559327128799234e-05,
      "longitude_deg": 154.22262713827627,
      "height_km": 482.98099781276284,
      "semi_major_axis_km": 6861.119442401061,
      "eccentricity": 0.00010573,
      "inclination_deg": 43.0006,
      "raan_deg": 182.7548,
      "arg_perigee_deg": 252.1666,
      "mean_anomaly_deg": 107.9071,
      "mean_motion_rev_day": 15.2760226
    }
  ]
}