{"fetched_at":"2026-03-29T02:12:04Z","count":15717,"tles":[{"name":"STARLINK-32731","line1":"1 62493U 25003G   26087.56264145  .00031477  00000+0  11477-2 0  9993","line2":"2 62493  43.0006 182.7548 0001057 252.1666 107.9071 15.27602260 69556","category":"Starlink"}]}